{
  "norad_id": 52847,
  "name": "STARLINK-4206",
  "history": [
    {
      "epoch": "2026-03-28T22:09:01.175328",
      "apogee_km": 540.6812109964267,
      "perigee_km": 538.7926314159376,
      "latitude_deg": 13.3218667680755,
      "longitude_deg": -86.69869408011436,
      "semi_major_axis_km": 6917.873921206182,
      "eccentricity": 0.0001365,
      "inclination_deg": 53.2171,
      "raan_deg": 307.7828,
      "arg_perigee_deg": 90.0928,
      "mean_anomaly_deg": 270.0221,
      "mean_motion_rev_day": 15.08842116
    }
  ]
}