{"fetched_at":"2026-03-29T16:36:15Z","count":15609,"tles":[{"name":"STARLINK-4206","line1":"1 52847U 22062T   26087.92293027  .00001597  00000+0  11840-3 0  9993","line2":"2 52847  53.2171 307.7828 0001365  90.0928 270.0221 15.08842116208690","category":"Starlink"}]}